OBJECT_NAME,OBJECT_ID,EPOCH,MEAN_MOTION,ECCENTRICITY,INCLINATION,RA_OF_ASC_NODE,ARG_OF_PERICENTER,MEAN_ANOMALY,EPHEMERIS_TYPE,CLASSIFICATION_TYPE,NORAD_CAT_ID,ELEMENT_SET_NO,REV_AT_EPOCH,BSTAR,MEAN_MOTION_DOT,MEAN_MOTION_DDOT
STARLINK-37945,2026-143W,2026-07-07T18:00:02.998944,15.70200972,.0001782,97.2856,232.6975,77.1283,29.2571,0,U,69669,999,366,-.1977E-1,-.2095079E-1,0
STARLINK-37948,2026-143X,2026-07-07T18:00:02.998944,15.53624110,.0001634,97.2856,232.6520,92.9060,248.7498,0,U,69670,999,366,-.44049E-1,-.2444984E-1,0
STARLINK-37949,2026-143Y,2026-07-07T18:00:02.998944,15.62203761,.0001408,97.2875,232.6780,70.4120,346.9539,0,U,69671,999,366,-.11639E-1,-.928016E-2,0
STARLINK-37946,2026-143Z,2026-07-07T18:00:02.998944,15.66439837,.0001695,97.2855,232.7015,63.7931,38.8762,0,U,69672,999,366,-.2681E-1,-.2437279E-1,0
TJS-26A,2026-144A,2026-07-07T19:23:23.106912,1.00267330,.0003406,6.9612,323.2261,346.6689,14.2705,0,U,69674,999,14,0,-.335E-5,0
STARLINK-38005,2026-145A,2026-07-07T19:22:48.876960,15.75310460,.000144,97.2851,35.2783,115.9129,244.2285,0,U,69677,999,201,.12246E-2,.187577E-2,0
STARLINK-38009,2026-145B,2026-07-07T19:20:16.486368,15.75322607,.0001479,97.2853,35.2819,125.7527,234.3876,0,U,69678,999,201,.13353E-2,.205068E-2,0
STARLINK-37998,2026-145C,2026-07-07T17:45:13.777056,15.75274537,.0001292,97.2852,35.2185,192.3542,167.7692,0,U,69679,999,200,.98188E-3,.149459E-2,0
STARLINK-37994,2026-145D,2026-07-07T10:09:48.773088,15.75419164,.00010811,97.2860,34.8840,59.7315,300.4057,0,U,69680,999,195,.13096597E-2,.201893E-2,0
STARLINK-37992,2026-145E,2026-07-07T10:09:19.528416,15.75377994,.000171,97.2848,34.8834,66.0334,294.1110,0,U,69681,999,195,.11979896E-2,.183951E-2,0
STARLINK-37997,2026-145F,2026-07-07T10:08:18.368448,15.75359830,.00015975,97.2848,34.8839,96.4645,263.6802,0,U,69682,999,195,.10369281E-2,.158602E-2,0
STARLINK-37990,2026-145G,2026-07-07T10:08:48.289632,15.75394447,.00012857,97.2841,34.8832,90.6496,269.4917,0,U,69683,999,195,.12039245E-2,.185016E-2,0
STARLINK-37951,2026-145H,2026-07-07T10:07:16.531968,15.75408794,.00010399,97.2851,34.8852,98.6982,261.4401,0,U,69684,999,195,.13513487E-2,.208391E-2,0
STARLINK-37957,2026-145J,2026-07-07T10:05:45.573504,15.75383484,.00014466,97.2842,34.8863,90.2743,269.8688,0,U,69685,999,195,.11576972E-2,.177669E-2,0
STARLINK-37968,2026-145K,2026-07-07T09:57:07.335936,15.75354898,.00008085,97.2852,34.8960,110.4431,249.6921,0,U,69686,999,195,.95919374E-3,.146459E-2,0
STARLINK-37977,2026-145L,2026-07-07T09:56:05.023392,15.75453100,.00007587,97.2857,34.8969,110.6882,249.4465,0,U,69687,999,195,.14882437E-2,.23056E-2,0
STARLINK-37908,2026-145M,2026-07-07T18:00:02.998944,15.75249404,.0000852,97.2854,35.2552,95.7908,20.6160,0,U,69688,999,323,-.10468E-2,-.153882E-2,0
STARLINK-37979,2026-145N,2026-07-07T18:00:02.998944,15.75249958,.0001427,97.2854,35.2559,83.9865,34.4229,0,U,69689,999,323,-.10551E-2,-.155085E-2,0
STARLINK-37940,2026-145P,2026-07-07T14:25:30.700128,15.75295194,.0002585,97.2849,35.1021,117.7918,242.3610,0,U,69690,999,198,.13826E-2,.212277E-2,0
STARLINK-37961,2026-145Q,2026-07-07T18:00:02.998944,15.75252324,.0001431,97.2854,35.2657,88.1086,54.2958,0,U,69691,999,323,-.1075E-2,-.157973E-2,0
STARLINK-37787,2026-145R,2026-07-07T18:00:02.998944,15.75245442,.0001327,97.2853,35.2712,77.4813,76.9204,0,U,69692,999,323,-.99224E-3,-.14598E-2,0
STARLINK-37962,2026-145S,2026-07-07T18:00:02.998944,15.75257521,.0001595,97.2852,35.2755,98.4059,65.9905,0,U,69693,999,323,-.11064E-2,-.162546E-2,0
STARLINK-37953,2026-145T,2026-07-07T18:00:02.998944,15.75255296,.0001546,97.2853,35.2685,96.3923,52.0104,0,U,69694,999,323,-.11044E-2,-.16223E-2,0
STARLINK-37926,2026-145U,2026-07-07T18:00:02.998944,15.75243115,.0001483,97.2852,35.2707,108.6333,43.7716,0,U,69695,999,323,-.96443E-3,-.141948E-2,0
STARLINK-37959,2026-145V,2026-07-07T18:00:02.998944,15.75243208,.0001283,97.2852,35.2727,101.3753,57.0283,0,U,69696,999,323,-.98459E-3,-.14486E-2,0
STARLINK-37976,2026-145W,2026-07-07T18:00:02.998944,15.75242602,.0001398,97.2853,35.2797,99.3445,75.0539,0,U,69697,999,323,-.98529E-3,-.14496E-2,0
STARLINK-37912,2026-145X,2026-07-07T18:00:02.998944,15.75232918,.0001102,97.2853,35.2829,69.1800,111.1937,0,U,69698,999,323,-.48683E-3,-.72265E-3,0
STARLINK-37974,2026-145Y,2026-07-07T18:00:02.998944,15.75244442,.0001496,97.2853,35.2841,98.5186,85.8820,0,U,69699,999,323,-.10282E-2,-.151166E-2,0
