STARLINK-37945          
1 69669U 26143W   26188.75003471 -.02095079  00000+0 -19770-1 0  9992
2 69669  97.2856 232.6975 0001782  77.1283  29.2571 15.70200972  3669
STARLINK-37948          
1 69670U 26143X   26188.75003471 -.02444984  00000+0 -44049-1 0  9994
2 69670  97.2856 232.6520 0001634  92.9060 248.7498 15.53624110  3662
STARLINK-37949          
1 69671U 26143Y   26188.75003471 -.00928016  00000+0 -11639-1 0  9995
2 69671  97.2875 232.6780 0001408  70.4120 346.9539 15.62203761  3661
STARLINK-37946          
1 69672U 26143Z   26188.75003471 -.02437279  00000+0 -26810-1 0  9991
2 69672  97.2855 232.7015 0001695  63.7931  38.8762 15.66439837  3669
TJS-26A                 
1 69674U 26144A   26188.80790633 -.00000335  00000+0  00000+0 0  9990
2 69674   6.9612 323.2261 0003406 346.6689  14.2705  1.00267330   148
STARLINK-38005          
1 69677U 26145A   26188.80751015  .00187577  00000+0  12246-2 0  9996
2 69677  97.2851  35.2783 0001440 115.9129 244.2285 15.75310460  2016
STARLINK-38009          
1 69678U 26145B   26188.80574637  .00205068  00000+0  13353-2 0  9996
2 69678  97.2853  35.2819 0001479 125.7527 234.3876 15.75322607  2014
STARLINK-37998          
1 69679U 26145C   26188.73974279  .00149459  00000+0  98188-3 0  9996
2 69679  97.2852  35.2185 0001292 192.3542 167.7692 15.75274537  2002
STARLINK-37994          
1 69680U 26145D   26188.42348117  .00201893  00000+0  13097-2 0  9996
2 69680  97.2860  34.8840 0001081  59.7315 300.4057 15.75419164  1957
STARLINK-37992          
1 69681U 26145E   26188.42314269  .00183951  00000+0  11980-2 0  9991
2 69681  97.2848  34.8834 0001710  66.0334 294.1110 15.75377994  1951
STARLINK-37997          
1 69682U 26145F   26188.42243482  .00158602  00000+0  10369-2 0  9995
2 69682  97.2848  34.8839 0001597  96.4645 263.6802 15.75359830  1950
STARLINK-37990          
1 69683U 26145G   26188.42278113  .00185016  00000+0  12039-2 0  9990
2 69683  97.2841  34.8832 0001285  90.6496 269.4917 15.75394447  1955
STARLINK-37951          
1 69684U 26145H   26188.42171912  .00208391  00000+0  13513-2 0  9990
2 69684  97.2851  34.8852 0001039  98.6982 261.4401 15.75408794  1955
STARLINK-37957          
1 69685U 26145J   26188.42066636  .00177669  00000+0  11577-2 0  9998
2 69685  97.2842  34.8863 0001446  90.2743 269.8688 15.75383484  1950
STARLINK-37968          
1 69686U 26145K   26188.41466824  .00146459  00000+0  95919-3 0  9997
2 69686  97.2852  34.8960 0000808 110.4431 249.6921 15.75354898  1953
STARLINK-37977          
1 69687U 26145L   26188.41394703  .00230560  00000+0  14882-2 0  9990
2 69687  97.2857  34.8969 0000758 110.6882 249.4465 15.75453100  1951
STARLINK-37908          
1 69688U 26145M   26188.75003471 -.00153882  00000+0 -10468-2 0  9996
2 69688  97.2854  35.2552 0000852  95.7908  20.6160 15.75249404  3233
STARLINK-37979          
1 69689U 26145N   26188.75003471 -.00155085  00000+0 -10551-2 0  9997
2 69689  97.2854  35.2559 0001427  83.9865  34.4229 15.75249958  3234
STARLINK-37940          
1 69690U 26145P   26188.60104977  .00212277  00000+0  13826-2 0  9999
2 69690  97.2849  35.1021 0002585 117.7918 242.3610 15.75295194  1981
STARLINK-37961          
1 69691U 26145Q   26188.75003471 -.00157973  00000+0 -10750-2 0  9999
2 69691  97.2854  35.2657 0001431  88.1086  54.2958 15.75252324  3233
STARLINK-37787          
1 69692U 26145R   26188.75003471 -.00145980  00000+0 -99224-3 0  9999
2 69692  97.2853  35.2712 0001327  77.4813  76.9204 15.75245442  3236
STARLINK-37962          
1 69693U 26145S   26188.75003471 -.00162546  00000+0 -11064-2 0  9992
2 69693  97.2852  35.2755 0001595  98.4059  65.9905 15.75257521  3232
STARLINK-37953          
1 69694U 26145T   26188.75003471 -.00162230  00000+0 -11044-2 0  9991
2 69694  97.2853  35.2685 0001546  96.3923  52.0104 15.75255296  3234
STARLINK-37926          
1 69695U 26145U   26188.75003471 -.00141948  00000+0 -96443-3 0  9992
2 69695  97.2852  35.2707 0001483 108.6333  43.7716 15.75243115  3234
STARLINK-37959          
1 69696U 26145V   26188.75003471 -.00144860  00000+0 -98459-3 0  9998
2 69696  97.2852  35.2727 0001283 101.3753  57.0283 15.75243208  3231
STARLINK-37976          
1 69697U 26145W   26188.75003471 -.00144960  00000+0 -98529-3 0  9998
2 69697  97.2853  35.2797 0001398  99.3445  75.0539 15.75242602  3232
STARLINK-37912          
1 69698U 26145X   26188.75003471 -.00072265  00000+0 -48683-3 0  9993
2 69698  97.2853  35.2829 0001102  69.1800 111.1937 15.75232918  3235
STARLINK-37974          
1 69699U 26145Y   26188.75003471 -.00151166  00000+0 -10282-2 0  9995
2 69699  97.2853  35.2841 0001496  98.5186  85.8820 15.75244442  3232
